NOAA 16 DEB             
1 41428U 00055LH  24347.73422748  .00006926  00000+0  27108-2 0  9998
2 41428  98.8148  87.6754 0014670 330.9533  29.0831 14.29741863455260
NOAA 16 DEB             
1 41429U 00055LJ  24349.07058655  .00005658  00000+0  24621-2 0  9998
2 41429  98.7367  65.7675 0018962 148.2533 211.9793 14.24321926454605
NOAA 16 DEB             
1 41430U 00055LK  24345.77529088  .00012671  00000+0  39656-2 0  9993
2 41430  99.0127 157.6321 0038934 349.5279  10.5093 14.40366300462145
NOAA 16 DEB             
1 41433U 00055LN  24350.04249788  .00058346  00000+0  10442-1 0  9998
2 41433  98.9872 195.3370 0019952 272.8536  87.0381 14.66406620462674
NOAA 16 DEB             
1 41492U 00055LQ  24347.09135502  .00009458  00000+0  61459-2 0  9997
2 41492  98.8726 283.3687 0112729 313.7518  45.4357 13.99654857444770
NOAA 16 DEB             
1 41493U 00055LR  24348.62004253  .00011106  00000+0  35038-2 0  9993
2 41493  98.8867 121.6756 0027567 319.9785  39.9370 14.40226441453546
NOAA 16 DEB             
1 41494U 00055LS  24347.41837396  .00013720  00000+0  38900-2 0  9997
2 41494  98.9368 144.4640 0028603 286.9143  72.8911 14.45354230454048
NOAA 16 DEB             
1 41495U 00055LT  24349.29480815  .00004092  00000+0  22119-2 0  9993
2 41495  98.6857   0.8092 0038743  16.8963 343.3490 14.12727972449965
NOAA 16 DEB             
1 41496U 00055LU  24349.48422939  .00006600  00000+0  25489-2 0  9998
2 41496  98.7343  78.3011 0016264  17.3482 342.8253 14.30421000454492
NOAA 16 DEB             
1 41498U 00055LW  24349.79889535  .00004338  00000+0  19593-2 0  9998
2 41498  98.9573 112.6583 0018521 102.2401 258.0852 14.22541347453603
NOAA 16 DEB             
1 41499U 00055LX  24350.15980187  .00013798  00000+0  49442-2 0  9992
2 41499  98.7091  62.1264 0030582  85.3984 275.0692 14.33784266453961
NOAA 16 DEB             
1 41500U 00055LY  24348.47333760  .00009870  00000+0  29959-2 0  9993
2 41500  99.0369 177.1974 0036040 348.1793  11.8545 14.42002183455904
NOAA 16 DEB             
1 41501U 00055LZ  24349.09048885  .00092705  00000+0  10964-1 0  9998
2 41501  98.6791 114.7007 0016209 126.1846 234.0867 14.84032618458856
NOAA 16 DEB             
1 41502U 00055MA  24349.39422183  .00004346  00000+0  20738-2 0  9994
2 41502  98.6879  38.5633 0009977 266.7120  93.2915 14.19698589453185
NOAA 16 DEB             
1 41503U 00055MB  24346.02193376  .00018356  00000+0  53876-2 0  9996
2 41503  98.7645  96.1789 0027674 301.2805  58.5675 14.43613714455586
NOAA 16 DEB             
1 41504U 00055MC  24349.41296039  .00006433  00000+0  29968-2 0  9991
2 41504  98.7889  51.5527 0030798 270.6856  89.0792 14.20562326453234
NOAA 16 DEB             
1 41505U 00055MD  24347.55573314  .00008099  00000+0  29668-2 0  9996
2 41505  98.8228  92.8073 0037985 292.5359  67.1806 14.32696576458509
NOAA 16 DEB             
1 41506U 00055ME  24345.94807123  .02626243  00000+0  31204-1 0  9993
2 41506  98.7340 157.3790 0020798 349.6669  10.4152 15.57703864466083
NOAA 16 DEB             
1 41508U 00055MG  24350.05750259  .00007348  00000+0  29704-2 0  9990
2 41508  98.8391  94.5944 0026932  90.0131 270.4136 14.27921533448072
NOAA 16 DEB             
1 41509U 00055MH  24348.06203490  .00005550  00000+0  23541-2 0  9995
2 41509  98.7727  73.8949 0018987 145.7749 214.4658 14.25661466451057
NOAA 16 DEB             
1 41510U 00055MJ  24350.05838930  .00007223  00000+0  31623-2 0  9991
2 41510  98.7741  71.6945 0027018 169.4154 190.7599 14.23811919451064
NOAA 16 DEB             
1 41511U 00055MK  24348.60281509  .00004646  00000+0  22642-2 0  9991
2 41511  98.7233  42.0968 0025854 258.1439 101.6837 14.18399295449735
NOAA 16 DEB             
1 41512U 00055ML  24346.40301919  .00015074  00000+0  44455-2 0  9999
2 41512  98.9631 150.5626 0035630 270.6545  89.0561 14.43290902454200
NOAA 16 DEB             
1 41513U 00055MM  24349.23304950  .00006106  00000+0  32823-2 0  9994
2 41513  98.7301 349.9384 0056986  56.1944 304.4636 14.12383752447059
NOAA 16 DEB             
1 41514U 00055MN  24349.66151902  .00023666  00000+0  60534-2 0  9999
2 41514  98.9031 140.2799 0031724 243.8337 115.9591 14.50083875450423
NOAA 16 DEB             
1 41515U 00055MP  24349.53912563  .00251726  00000+0  17380-1 0  9994
2 41515  98.9400 194.2636 0011020 334.7783  25.2899 15.04425861450783
NOAA 16 DEB             
1 41516U 00055MQ  24348.18064056  .00005984  00000+0  23859-2 0  9992
2 41516  98.6974  65.1066 0012635 330.6131  29.4339 14.28862941447730
NOAA 16 DEB             
1 41518U 00055MS  24350.10288130  .00069854  00000+0  12272-1 0  9992
2 41518  98.8247 121.9156 0017282 318.7912  41.1984 14.67180939450098
NOAA 16 DEB             
1 41519U 00055MT  24349.76749765  .00062500  00000+0  12408-1 0  9991
2 41519  98.8345 105.5079 0016337 254.1398 105.8000 14.61745494449082
NOAA 16 DEB             
1 41520U 00055MU  24346.74299025  .00028348  00000+0  87991-2 0  9999
2 41520  98.8901  90.4187 0042936 210.1232 149.7486 14.40455586446176
NOAA 16 DEB             
1 41521U 00055MV  24348.29636372  .00159969  00000+0  14879-1 0  9990
2 41521  98.7703 109.8777 0029585 314.6514  45.2290 14.93147988449891
NOAA 16 DEB             
1 41522U 00055MW  24349.37057975  .00057258  00000+0  94635-2 0  9994
2 41522  98.8585 137.3189 0020283 248.1550 111.7496 14.69934739449967
NOAA 16 DEB             
1 41523U 00055MX  24349.93651824  .00006573  00000+0  29858-2 0  9999
2 41523  98.7501  63.4557 0011180 212.8422 147.2062 14.22086793446131
NOAA 16 DEB             
1 41525U 00055MZ  24349.97560242  .00007050  00000+0  30429-2 0  9995
2 41525  98.6908  54.3316 0010667 328.3728  31.6810 14.24719756451245
NOAA 16 DEB             
1 41526U 00055NA  24347.90673744  .00009937  00000+0  32407-2 0  9993
2 41526  98.9987 147.6566 0022221  31.6232 328.6284 14.38708662453001
NOAA 16 DEB             
1 41528U 00055NC  24349.47674102  .00031556  00000+0  75897-2 0  9990
2 41528  98.7703  80.3309 0010505  50.1805 310.0312 14.53177229452797
NOAA 16 DEB             
1 41529U 00055ND  24349.34680414  .00003945  00000+0  21452-2 0  9999
2 41529  98.7506  19.4422 0036695  44.0553 316.3533 14.12471234447952
NOAA 16 DEB             
1 41531U 00055NF  24348.91021973  .00003786  00000+0  19860-2 0  9996
2 41531  98.6798  16.4261 0030646 357.7570   2.3462 14.14528961445265
NOAA 16 DEB             
1 41532U 00055NG  24348.18454449  .00005697  00000+0  23298-2 0  9997
2 41532  98.7484  74.5715 0009874 337.8391  22.2361 14.27601939447472
NOAA 16 DEB             
1 41534U 00055NJ  24348.15479855  .00008028  00000+0  34580-2 0  9991
2 41534  98.8314  58.3977 0019213 346.0687  13.9959 14.24715512444573
NOAA 16 DEB             
1 41536U 00055NL  24349.70294247  .00007168  00000+0  28252-2 0  9998
2 41536  98.7418  77.7435 0011649   6.6849 353.4486 14.29388196460739
NOAA 16 DEB             
1 41537U 00055NM  24347.13931638  .00003827  00000+0  18017-2 0  9992
2 41537  98.6547  51.8676 0005098 119.0688 241.1000 14.20494073459144
NOAA 16 DEB             
1 41538U 00055NN  24346.27908833  .00007191  00000+0  38735-2 0  9995
2 41538  98.7441 345.8826 0048456  52.3881 308.1675 14.12434776454378
NOAA 16 DEB             
1 41539U 00055NP  24350.10300842  .00014538  00000+0  47699-2 0  9991
2 41539  98.8045 101.1922 0021719 297.8127  62.0858 14.38300130459202
NOAA 16 DEB             
1 41540U 00055NQ  24349.32706055  .00004245  00000+0  22244-2 0  9994
2 41540  98.7288  27.3484 0034325 311.5005  48.3224 14.14461709445551
NOAA 16 DEB             
1 41652U 00055NR  24350.03482733  .00017961  00000+0  69150-2 0  9998
2 41652  98.8841  76.5935 0040234 252.6209 107.0571 14.29902671446042
NOAA 16 DEB             
1 41653U 00055NS  24347.25168207  .00009582  00000+0  35773-2 0  9990
2 41653  98.8489  95.4020 0005489  74.3693 285.8095 14.32080833447919
NOAA 16 DEB             
1 41654U 00055NT  24348.09400517  .00005087  00000+0  22347-2 0  9996
2 41654  98.6577  34.9621 0039223 318.9531  40.8698 14.23560859446718
NOAA 16 DEB             
1 41655U 00055NU  24349.69363832  .00007248  00000+0  27996-2 0  9998
2 41655  98.7299  77.7522 0017969 312.2606  47.7052 14.30360937448567
NOAA 16 DEB             
1 41656U 00055NV  24349.76362464  .00036412  00000+0  94376-2 0  9998
2 41656  98.8724 101.6776 0011042 201.6402 158.4325 14.49589995447908
NOAA 16 DEB             
1 41657U 00055NW  24349.62136192  .00006524  00000+0  27190-2 0  9992
2 41657  98.6650  47.6377 0012174 305.5506  54.4539 14.26547478447487
NOAA 16 DEB             
1 41658U 00055NX  24349.12614571  .00029817  00000+0  71929-2 0  9999
2 41658  98.8822 128.0757 0023549 264.4990  95.3518 14.52920562449453
NOAA 16 DEB             
1 41659U 00055NY  24350.06943427  .00014603  00000+0  51057-2 0  9997
2 41659  98.8630 101.5852 0013417 324.0906  35.9376 14.35219138448098
NOAA 16 DEB             
1 41660U 00055NZ  24345.11998951  .00011695  00000+0  43898-2 0  9993
2 41660  98.7370  77.2225 0017793 343.4765  16.5836 14.31664481447942
NOAA 16 DEB             
1 41661U 00055PA  24349.67613858  .00010047  00000+0  35109-2 0  9995
2 41661  99.0258 148.5926 0022695  63.5600 296.7909 14.35264016448596
NOAA 16 DEB             
1 41662U 00055PB  24349.82924136  .00052398  00000+0  10840-1 0  9996
2 41662  98.8622 125.8490 0014249 258.2621 101.6979 14.59962326449031
NOAA 16 DEB             
1 41663U 00055PC  24350.07543622  .00017031  00000+0  53814-2 0  9997
2 41663  98.8179 101.8802 0014049 330.1643  29.8742 14.40195461449107
NOAA 16 DEB             
1 41664U 00055PD  24347.44449750  .00416885  00000+0  19492-1 0  9995
2 41664  98.8414 157.4260 0022731 299.3046  60.5912 15.17615100450111
NOAA 16 DEB             
1 41665U 00055PE  24336.23911215  .00003020  00000+0  17845-2 0  9995
2 41665  98.6253 337.1887 0041049 354.2882   5.7815 14.08058601441899
NOAA 16 DEB             
1 41666U 00055PF  24349.92391432  .00125742  00000+0  14997-1 0  9999
2 41666  98.8797 158.3596 0020567 284.5017  75.3912 14.83422457448415
